GLOBALSTAR M068         
1 32266U 07048D   25308.50599183 -.00000088  00000+0  87997-4 0  9996
2 32266  51.9879 234.5145 0001758  74.6754  96.4689 12.62832016835287
GLOBALSTAR M079         
1 37188U 10054A   25308.49411590 -.00000117  00000+0 -75243-4 0  9993
2 37188  52.0039  72.6670 0000668 130.4537 304.9807 12.62268135694173
GLOBALSTAR M074         
1 37189U 10054B   25307.74426095 -.00000113  00000+0 -53791-4 0  9997
2 37189  52.0014  74.2500 0000709 103.3871  42.8032 12.62272830694684
GLOBALSTAR M076         
1 37190U 10054C   25308.09311394 -.00000117  00000+0 -71155-4 0  9991
2 37190  52.0028  73.3734 0000489 109.3440  61.6796 12.62267217694446
GLOBALSTAR M077         
1 37191U 10054D   25308.47331772 -.00000107  00000+0 -81885-4 0  9996
2 37191  52.0098  34.2261 0002019  66.7857  15.9322 12.36452512694794
GLOBALSTAR M075         
1 37192U 10054E   25308.18525265 -.00000096  00000+0  42740-4 0  9990
2 37192  51.9924 115.2718 0000919  97.8458  73.2911 12.62269467693522
GLOBALSTAR M073         
1 37193U 10054F   25308.40278044 -.00000105  00000+0 -46866-5 0  9992
2 37193  52.0083  28.5376 0000407 135.8928 302.8482 12.62263657695547
GLOBALSTAR M083         
1 37739U 11033A   25308.51049448 -.00000082  00000+0  12226-3 0  9996
2 37739  51.9873 336.7478 0000231 127.1385  23.0946 12.62264180664579
GLOBALSTAR M088         
1 37740U 11033B   25308.13755969 -.00000101  00000+0  16647-4 0  9992
2 37740  52.0213 243.7661 0000772  65.5994 307.8640 12.62269450660073
GLOBALSTAR M091         
1 37741U 11033C   25308.50242016 -.00000081  00000+0  12527-3 0  9997
2 37741  51.9985 205.9532 0000910  84.2334  88.2383 12.62261255660906
GLOBALSTAR M085         
1 37742U 11033D   25308.00878111 -.00000069  00000+0  19432-3 0  9992
2 37742  52.0099 158.5515 0001028  99.1687  49.2301 12.62266541661356
GLOBALSTAR M081         
1 37743U 11033E   25308.56150306 -.00000062  00000+0  23075-3 0  9994
2 37743  51.9933 159.5607 0000834  91.6851 289.5541 12.62270078661578
GLOBALSTAR M089         
1 37744U 11033F   25308.23797308 -.00000094  00000+0  56502-4 0  9995
2 37744  51.9904 114.7447 0000854  81.7367  89.5186 12.62272376662371
GLOBALSTAR M084         
1 38040U 11080A   25308.37493200 -.00000081  00000+0  12928-3 0  9995
2 38040  52.0025 341.6924 0000327  43.5507 329.6813 12.62264659640371
GLOBALSTAR M080         
1 38041U 11080B   25308.42564443 -.00000075  00000+0  16074-3 0  9999
2 38041  52.0077 343.1789 0000784 111.0953 262.1497 12.62270227640500
GLOBALSTAR M082         
1 38042U 11080C   25308.30262485 -.00000097  00000+0  38011-4 0  9998
2 38042  52.0081 299.0297 0000592  99.4107   4.7856 12.62264502641190
GLOBALSTAR M092         
1 38043U 11080D   25308.49398933 -.00000103  00000+0  68575-5 0  9994
2 38043  52.0104  28.8301 0000556 109.8833 263.5902 12.62267411639672
GLOBALSTAR M090         
1 38044U 11080E   25308.16574687 -.00000096  00000+0  41615-4 0  9997
2 38044  52.0128 293.3298 0000310  86.7367 354.2288 12.62263747641290
GLOBALSTAR M086         
1 38045U 11080F   25308.25482594 -.00000084  00000+0  11117-3 0  9993
2 38045  51.9902 293.3546 0000649 285.0966  88.1576 12.62279014641252
GLOBALSTAR M097         
1 39072U 13005A   25308.04206957 -.00000088  00000+0  89948-4 0  9999
2 39072  52.0039 208.6986 0000664  78.2789 281.8153 12.62266884588473
GLOBALSTAR M093         
1 39073U 13005B   25308.41198919 -.00000045  00000+0  32804-3 0  9990
2 39073  52.0093 200.8346 0000623  97.1940 262.8998 12.62270157588476
GLOBALSTAR M094         
1 39074U 13005C   25308.49087134 -.00000106  00000+0 -11122-4 0  9995
2 39074  51.9933 114.9316 0000849 113.4607 246.6349 12.62264973590092
GLOBALSTAR M096         
1 39075U 13005D   25306.99953813 -.00000063  00000+0  22977-3 0  9995
2 39075  52.0049 168.0973 0000920  97.2629 262.8342 12.62268565588827
GLOBALSTAR M078         
1 39076U 13005E   25308.16143891  .00000003  00000+0  59437-3 0  9998
2 39076  51.9868 248.8830 0001285 103.7316 256.3693 12.62262989587599
GLOBALSTAR M095         
1 39077U 13005F   25308.10828583 -.00000103  00000+0  63755-5 0  9993
2 39077  52.0075 246.3281 0000708 104.4743 255.6202 12.62261281587442
GLOBALSTAR M087         
1 52888U 22064A   25308.35869498 -.00000106  00000+0 -12662-4 0  9994
2 52888  52.0018  26.9291 0000611 135.0401 225.0515 12.62259992162747
